[{"OBJECT_NAME":"CONNECTA T1.2","OBJECT_ID":"2023-001D","EPOCH":"2026-02-01T17:52:34.562208","MEAN_MOTION":15.42853797,"ECCENTRICITY":0.00060417,"INCLINATION":97.3471,"RA_OF_ASC_NODE":101.7676,"ARG_OF_PERICENTER":221.7661,"MEAN_ANOMALY":138.3126,"EPHEMERIS_TYPE":0,"CLASSIFICATION_TYPE":"U","NORAD_CAT_ID":55012,"ELEMENT_SET_NO":999,"REV_AT_EPOCH":17161,"BSTAR":0.00067147768,"MEAN_MOTION_DOT":0.00029452,"MEAN_MOTION_DDOT":0},{"OBJECT_NAME":"BIRKELAND","OBJECT_ID":"2023-001G","EPOCH":"2026-02-01T22:51:52.296768","MEAN_MOTION":15.37326952,"ECCENTRICITY":0.00061017,"INCLINATION":97.3524,"RA_OF_ASC_NODE":100.7278,"ARG_OF_PERICENTER":221.3078,"MEAN_ANOMALY":138.7706,"EPHEMERIS_TYPE":0,"CLASSIFICATION_TYPE":"U","NORAD_CAT_ID":55015,"ELEMENT_SET_NO":999,"REV_AT_EPOCH":17155,"BSTAR":0.00024738245,"MEAN_MOTION_DOT":8.972e-5,"MEAN_MOTION_DDOT":0},{"OBJECT_NAME":"ION SCV-008","OBJECT_ID":"2023-001AU","EPOCH":"2026-02-01T23:27:30.109248","MEAN_MOTION":15.26597906,"ECCENTRICITY":0.00166026,"INCLINATION":97.5724,"RA_OF_ASC_NODE":127.256,"ARG_OF_PERICENTER":126.868,"MEAN_ANOMALY":233.4084,"EPHEMERIS_TYPE":0,"CLASSIFICATION_TYPE":"U","NORAD_CAT_ID":55051,"ELEMENT_SET_NO":999,"REV_AT_EPOCH":17069,"BSTAR":0.00028923641,"MEAN_MOTION_DOT":7.526e-5,"MEAN_MOTION_DDOT":0},{"OBJECT_NAME":"ION SCV-007","OBJECT_ID":"2023-001BD","EPOCH":"2026-02-01T18:00:47.070720","MEAN_MOTION":14.77404023,"ECCENTRICITY":0.00134955,"INCLINATION":97.9198,"RA_OF_ASC_NODE":98.3496,"ARG_OF_PERICENTER":57.3338,"MEAN_ANOMALY":302.9172,"EPHEMERIS_TYPE":0,"CLASSIFICATION_TYPE":"U","NORAD_CAT_ID":55060,"ELEMENT_SET_NO":999,"REV_AT_EPOCH":16625,"BSTAR":8.7613267e-5,"MEAN_MOTION_DOT":5.73e-6,"MEAN_MOTION_DDOT":0},{"OBJECT_NAME":"HUYGENS","OBJECT_ID":"2023-001CN","EPOCH":"2026-02-01T22:51:55.619712","MEAN_MOTION":15.37342435,"ECCENTRICITY":0.00095106,"INCLINATION":97.3438,"RA_OF_ASC_NODE":100.1259,"ARG_OF_PERICENTER":202.1751,"MEAN_ANOMALY":157.9084,"EPHEMERIS_TYPE":0,"CLASSIFICATION_TYPE":"U","NORAD_CAT_ID":55093,"ELEMENT_SET_NO":999,"REV_AT_EPOCH":17157,"BSTAR":0.00025665845,"MEAN_MOTION_DOT":9.325e-5,"MEAN_MOTION_DDOT":0},{"OBJECT_NAME":"SHARJAHSAT-1","OBJECT_ID":"2023-001CZ","EPOCH":"2026-02-01T22:41:36.206016","MEAN_MOTION":15.43691507,"ECCENTRICITY":0.00054691,"INCLINATION":97.3375,"RA_OF_ASC_NODE":100.2359,"ARG_OF_PERICENTER":225.986,"MEAN_ANOMALY":134.0938,"EPHEMERIS_TYPE":0,"CLASSIFICATION_TYPE":"U","NORAD_CAT_ID":55104,"ELEMENT_SET_NO":999,"REV_AT_EPOCH":17159,"BSTAR":0.00042708871,"MEAN_MOTION_DOT":0.00019208,"MEAN_MOTION_DDOT":0},{"OBJECT_NAME":"HORUS 1","OBJECT_ID":"2023-025A","EPOCH":"2026-02-01T23:25:11.392320","MEAN_MOTION":15.23384537,"ECCENTRICITY":0.00015618,"INCLINATION":97.3606,"RA_OF_ASC_NODE":110.3274,"ARG_OF_PERICENTER":165.0341,"MEAN_ANOMALY":195.0943,"EPHEMERIS_TYPE":0,"CLASSIFICATION_TYPE":"U","NORAD_CAT_ID":55690,"ELEMENT_SET_NO":999,"REV_AT_EPOCH":16346,"BSTAR":0.00027292471,"MEAN_MOTION_DOT":6.422e-5,"MEAN_MOTION_DDOT":0},{"OBJECT_NAME":"HORUS 2","OBJECT_ID":"2023-032A","EPOCH":"2026-02-01T22:39:56.298240","MEAN_MOTION":15.23382061,"ECCENTRICITY":0.00025543,"INCLINATION":97.3674,"RA_OF_ASC_NODE":110.9806,"ARG_OF_PERICENTER":161.2577,"MEAN_ANOMALY":198.8754,"EPHEMERIS_TYPE":0,"CLASSIFICATION_TYPE":"U","NORAD_CAT_ID":55844,"ELEMENT_SET_NO":999,"REV_AT_EPOCH":16089,"BSTAR":0.00029099331,"MEAN_MOTION_DOT":6.852e-5,"MEAN_MOTION_DDOT":0},{"OBJECT_NAME":"GLOBAL-19","OBJECT_ID":"2023-041B","EPOCH":"2026-02-01T20:45:41.980608","MEAN_MOTION":15.38304161,"ECCENTRICITY":0.00030712,"INCLINATION":42.0017,"RA_OF_ASC_NODE":271.431,"ARG_OF_PERICENTER":287.9391,"MEAN_ANOMALY":72.1114,"EPHEMERIS_TYPE":0,"CLASSIFICATION_TYPE":"U","NORAD_CAT_ID":55982,"ELEMENT_SET_NO":999,"REV_AT_EPOCH":16108,"BSTAR":0.00041627087,"MEAN_MOTION_DOT":0.00015843,"MEAN_MOTION_DDOT":0},{"OBJECT_NAME":"BRO-9","OBJECT_ID":"2023-054H","EPOCH":"2026-02-02T00:15:19.412640","MEAN_MOTION":15.63077157,"ECCENTRICITY":0.00048999,"INCLINATION":97.3097,"RA_OF_ASC_NODE":304.5901,"ARG_OF_PERICENTER":130.2972,"MEAN_ANOMALY":229.8716,"EPHEMERIS_TYPE":0,"CLASSIFICATION_TYPE":"U","NORAD_CAT_ID":56185,"ELEMENT_SET_NO":999,"REV_AT_EPOCH":15781,"BSTAR":0.00044872359,"MEAN_MOTION_DOT":0.00040838,"MEAN_MOTION_DDOT":0},{"OBJECT_NAME":"ION SCV-010","OBJECT_ID":"2023-054Q","EPOCH":"2026-02-01T15:28:19.646112","MEAN_MOTION":15.24732854,"ECCENTRICITY":0.00124452,"INCLINATION":97.3969,"RA_OF_ASC_NODE":283.8547,"ARG_OF_PERICENTER":330.2947,"MEAN_ANOMALY":29.7582,"EPHEMERIS_TYPE":0,"CLASSIFICATION_TYPE":"U","NORAD_CAT_ID":56192,"ELEMENT_SET_NO":999,"REV_AT_EPOCH":15553,"BSTAR":0.0002433107,"MEAN_MOTION_DOT":5.964e-5,"MEAN_MOTION_DDOT":0},{"OBJECT_NAME":"GHOST-1","OBJECT_ID":"2023-054T","EPOCH":"2026-02-01T17:07:38.781984","MEAN_MOTION":15.74298805,"ECCENTRICITY":0.000632,"INCLINATION":97.3073,"RA_OF_ASC_NODE":307.6423,"ARG_OF_PERICENTER":122.162,"MEAN_ANOMALY":238.0259,"EPHEMERIS_TYPE":0,"CLASSIFICATION_TYPE":"U","NORAD_CAT_ID":56195,"ELEMENT_SET_NO":999,"REV_AT_EPOCH":15797,"BSTAR":0.00056283254,"MEAN_MOTION_DOT":0.00081522,"MEAN_MOTION_DDOT":0},{"OBJECT_NAME":"TELEOS-2","OBJECT_ID":"2023-057C","EPOCH":"2026-01-27T12:31:25.807872","MEAN_MOTION":14.96438043,"ECCENTRICITY":6.718e-5,"INCLINATION":9.9867,"RA_OF_ASC_NODE":148.3925,"ARG_OF_PERICENTER":282.9643,"MEAN_ANOMALY":77.0496,"EPHEMERIS_TYPE":0,"CLASSIFICATION_TYPE":"U","NORAD_CAT_ID":56310,"ELEMENT_SET_NO":999,"REV_AT_EPOCH":15169,"BSTAR":0.00055318835,"MEAN_MOTION_DOT":7.141e-5,"MEAN_MOTION_DDOT":0},{"OBJECT_NAME":"SNIPE 4","OBJECT_ID":"2023-072B","EPOCH":"2026-02-01T22:59:54.703392","MEAN_MOTION":15.36512881,"ECCENTRICITY":0.00072276,"INCLINATION":97.5359,"RA_OF_ASC_NODE":235.1247,"ARG_OF_PERICENTER":87.8474,"MEAN_ANOMALY":272.3597,"EPHEMERIS_TYPE":0,"CLASSIFICATION_TYPE":"U","NORAD_CAT_ID":56744,"ELEMENT_SET_NO":999,"REV_AT_EPOCH":14930,"BSTAR":0.0005179537,"MEAN_MOTION_DOT":0.00018409,"MEAN_MOTION_DDOT":0},{"OBJECT_NAME":"SNIPE 2","OBJECT_ID":"2023-072C","EPOCH":"2026-02-01T22:41:13.099200","MEAN_MOTION":15.39637897,"ECCENTRICITY":0.00058615,"INCLINATION":97.5367,"RA_OF_ASC_NODE":237.3537,"ARG_OF_PERICENTER":114.2631,"MEAN_ANOMALY":245.9227,"EPHEMERIS_TYPE":0,"CLASSIFICATION_TYPE":"U","NORAD_CAT_ID":56745,"ELEMENT_SET_NO":999,"REV_AT_EPOCH":14938,"BSTAR":0.00056061932,"MEAN_MOTION_DOT":0.00022066,"MEAN_MOTION_DDOT":0},{"OBJECT_NAME":"2023-072G","OBJECT_ID":"2023-072G","EPOCH":"2026-02-01T23:35:08.899296","MEAN_MOTION":15.42743173,"ECCENTRICITY":0.0005321,"INCLINATION":97.5025,"RA_OF_ASC_NODE":236.1121,"ARG_OF_PERICENTER":104.8677,"MEAN_ANOMALY":255.316,"EPHEMERIS_TYPE":0,"CLASSIFICATION_TYPE":"U","NORAD_CAT_ID":56749,"ELEMENT_SET_NO":999,"REV_AT_EPOCH":14956,"BSTAR":0.0005587339,"MEAN_MOTION_DOT":0.00024381,"MEAN_MOTION_DDOT":0}]
