CONNECTA T1.2           
1 55012U 23001D   26032.74484447  .00029452  00000+0  67148-3 0  9994
2 55012  97.3471 101.7676 0006041 221.7661 138.3126 15.42853797171611
BIRKELAND               
1 55015U 23001G   26032.95268862  .00008972  00000+0  24738-3 0  9993
2 55015  97.3524 100.7278 0006101 221.3078 138.7706 15.37326952171558
ION SCV-008             
1 55051U 23001AU  26032.97743182  .00007526  00000+0  28924-3 0  9993
2 55051  97.5724 127.2560 0016602 126.8680 233.4084 15.26597906170698
ION SCV-007             
1 55060U 23001BD  26032.75054480  .00000573  00000+0  87613-4 0  9991
2 55060  97.9198  98.3496 0013495  57.3338 302.9172 14.77404023166257
HUYGENS                 
1 55093U 23001CN  26032.95272708  .00009325  00000+0  25666-3 0  9997
2 55093  97.3438 100.1259 0009510 202.1751 157.9084 15.37342435171571
SHARJAHSAT-1            
1 55104U 23001CZ  26032.94555794  .00019208  00000+0  42709-3 0  9996
2 55104  97.3375 100.2359 0005469 225.9860 134.0938 15.43691507171599
HORUS 1                 
1 55690U 23025A   26032.97582630  .00006422  00000+0  27292-3 0  9998
2 55690  97.3606 110.3274 0001561 165.0341 195.0943 15.23384537163461
HORUS 2                 
1 55844U 23032A   26032.94440160  .00006852  00000+0  29099-3 0  9999
2 55844  97.3674 110.9806 0002554 161.2577 198.8754 15.23382061160891
GLOBAL-19               
1 55982U 23041B   26032.86506922  .00015843  00000+0  41627-3 0  9993
2 55982  42.0017 271.4310 0003071 287.9391  72.1114 15.38304161161087
BRO-9                   
1 56185U 23054H   26033.01064135  .00040838  00000+0  44872-3 0  9993
2 56185  97.3097 304.5901 0004899 130.2972 229.8716 15.63077157157817
ION SCV-010             
1 56192U 23054Q   26032.64467183  .00005964  00000+0  24331-3 0  9998
2 56192  97.3969 283.8547 0012445 330.2947  29.7582 15.24732854155532
GHOST-1                 
1 56195U 23054T   26032.71364331  .00081522  00000+0  56283-3 0  9995
2 56195  97.3073 307.6423 0006320 122.1620 238.0259 15.74298805157974
TELEOS-2                
1 56310U 23057C   26027.52182648  .00007141  00000+0  55319-3 0  9993
2 56310   9.9867 148.3925 0000671 282.9643  77.0496 14.96438043151693
SNIPE 4                 
1 56744U 23072B   26032.95827203  .00018409  00000+0  51795-3 0  9990
2 56744  97.5359 235.1247 0007227  87.8474 272.3597 15.36512881149308
SNIPE 2                 
1 56745U 23072C   26032.94529050  .00022066  00000+0  56062-3 0  9995
2 56745  97.5367 237.3537 0005861 114.2631 245.9227 15.39637897149388
2023-072G               
1 56749U 23072G   26032.98274189  .00024381  00000+0  55873-3 0  9994
2 56749  97.5025 236.1121 0005321 104.8677 255.3160 15.42743173149565
